SAUDISAT 1C (SO-50)     
1 27607U 02058C   26167.07637918  .00000851  00000+0  11773-3 0  9995
2 27607  64.5510 132.4221 0075289 262.6786  96.5759 14.83044860264290
SAUDISAT 2              
1 28371U 04025F   26166.99862057  .00000211  00000+0  58286-4 0  9995
2 28371  98.5507 166.9498 0023635 302.0706  57.8196 14.56683369165578
SAUDISAT 3              
1 31118U 07012B   26166.83064163  .00000216  00000+0  43013-4 0  9999
2 31118  98.1456 117.2304 0013565 228.4341 131.5703 14.71424913 27545
PISAT                   
1 41784U 16059B   26166.98604560  .00000730  00000+0  13186-3 0  9995
2 41784  97.8179 167.4904 0028288 206.7001 153.2750 14.68981716519562
FLYING LAPTOP           
1 42831U 17042G   26167.18565837  .00002110  00000+0  16857-3 0  9990
2 42831  97.4679 322.7561 0019528 124.9089 235.3974 15.01138064486309
SALSAT                  
1 46495U 20068K   26166.96813813  .00006820  00000+0  23912-3 0  9999
2 46495  97.8844 169.9584 0008114 313.3675  46.6887 15.29785415315177
